ONEWEB-0474             
1 51654U 22012AJ  23059.55382787 -.00000718  00000+0 -20926-2 0  9990
2 51654  87.8727 275.5933 0001067  82.9555 277.1693 13.10373554 51535
ONEWEB-0474             
1 51654U 22012AJ  23059.63018537 -.00000489  00000+0 -14361-2 0  9999
2 51654  87.8728 275.5780 0001089  83.4312 276.6939 13.10372351 52832
ONEWEB-0474             
1 51654U 22012AJ  23059.85925811 -.00000541  00000+0 -15852-2 0  9990
2 51654  87.8728 275.5321 0001090  83.6354 276.4897 13.10371885 51575
ONEWEB-0474             
1 51654U 22012AJ  23060.85190567 -.00000597  00000+0 -17473-2 0  9996
2 51654  87.8724 275.3334 0001089  85.4923 274.6329 13.10371416 51708
ONEWEB-0474             
1 51654U 22012AJ  23060.85190567 -.00000597  00000+0 -17473-2 0  9996
2 51654  87.8724 275.3334 0001089  85.4923 274.6329 13.10371416 52990
ONEWEB-0474             
1 51654U 22012AJ  23061.61548176 -.00000577  00000+0 -16881-2 0  9994
2 51654  87.8721 275.1808 0001067  87.0361 273.0889 13.10370699 51806
ONEWEB-0474             
1 51654U 22012AJ  23062.14998484 -.00000504  00000+0 -14816-2 0  9990
2 51654  87.8719 275.0738 0001060  88.2981 271.8268 13.10370990 51876
ONEWEB-0474             
1 51654U 22012AJ  23062.14998484 -.00000504  00000+0 -14816-2 0  9990
2 51654  87.8719 275.0738 0001060  88.2981 271.8268 13.10370990 53160
ONEWEB-0474             
1 51654U 22012AJ  23062.83720543 -.00000511  00000+0 -15017-2 0  9997
2 51654  87.8718 274.9364 0001058  89.5344 270.5905 13.10369168 51961
